{
  "type": "FeatureCollection",
  "features": [
    {
      "type": "Feature",
      "properties": {
        "norad_id": 66561,
        "name": "STARLINK-35305",
        "group": "last-30-days",
        "lat": 42.728212285585315,
        "lon": 126.6642761646275,
        "alt_km": 424.28812124295655,
        "timestamp": "2025-12-25T20:42:37.405553+00:00",
        "meta_object_name": "STARLINK-35305",
        "meta_object_id": "2025-268E",
        "meta_epoch": "2025-12-25T08:00:01.000224",
        "meta_mean_motion": 15.47820357,
        "meta_eccentricity": 0.00012736,
        "meta_inclination": 42.9999,
        "meta_ra_of_asc_node": 47.3332,
        "meta_arg_of_pericenter": 272.8285,
        "meta_mean_anomaly": 99.4308,
        "meta_ephemeris_type": 0,
        "meta_classification_type": "U",
        "meta_norad_cat_id": 66561,
        "meta_element_set_no": 999,
        "meta_rev_at_epoch": 608,
        "meta_bstar": -0.043872805,
        "meta_mean_motion_dot": -0.02074851,
        "meta_mean_motion_ddot": 0,
        "tle_line1": "1 66561U 25268E   25359.33334491 -.02074851  00000+0 -43873-1 0  9995",
        "tle_line2": "2 66561  42.9999  47.3332 0001273 272.8285  99.4308 15.47820357  6086"
      },
      "geometry": {
        "type": "Point",
        "coordinates": [
          126.6642761646275,
          42.728212285585315
        ]
      }
    },
    {
      "type": "Feature",
      "properties": {
        "norad_id": 66562,
        "name": "STARLINK-35579",
        "group": "last-30-days",
        "lat": 41.16087865175604,
        "lon": 114.01850621504362,
        "alt_km": 427.03300327092893,
        "timestamp": "2025-12-25T20:42:37.405563+00:00",
        "meta_object_name": "STARLINK-35579",
        "meta_object_id": "2025-268F",
        "meta_epoch": "2025-12-25T08:00:01.000224",
        "meta_mean_motion": 15.46988065,
        "meta_eccentricity": 0.00014811,
        "meta_inclination": 43.0004,
        "meta_ra_of_asc_node": 47.3514,
        "meta_arg_of_pericenter": 266.5762,
        "meta_mean_anomaly": 97.7203,
        "meta_ephemeris_type": 0,
        "meta_classification_type": "U",
        "meta_norad_cat_id": 66562,
        "meta_element_set_no": 999,
        "meta_rev_at_epoch": 608,
        "meta_bstar": -0.044675323,
        "meta_mean_motion_dot": -0.02054581,
        "meta_mean_motion_ddot": 0,
        "tle_line1": "1 66562U 25268F   25359.33334491 -.02054581  00000+0 -44675-1 0  9995",
        "tle_line2": "2 66562  43.0004  47.3514 0001481 266.5762  97.7203 15.46988065  6084"
      },
      "geometry": {
        "type": "Point",
        "coordinates": [
          114.01850621504362,
          41.16087865175604
        ]
      }
    },
    {
      "type": "Feature",
      "properties": {
        "norad_id": 66563,
        "name": "STARLINK-35437",
        "group": "last-30-days",
        "lat": 42.88387219572448,
        "lon": 138.93163107542784,
        "alt_km": 421.7594605032482,
        "timestamp": "2025-12-25T20:42:37.405574+00:00",
        "meta_object_name": "STARLINK-35437",
        "meta_object_id": "2025-268G",
        "meta_epoch": "2025-12-25T08:00:01.000224",
        "meta_mean_motion": 15.48653018,
        "meta_eccentricity": 0.0001181,
        "meta_inclination": 43.0005,
        "meta_ra_of_asc_node": 47.3149,
        "meta_arg_of_pericenter": 270.8661,
        "meta_mean_anomaly": 108.7942,
        "meta_ephemeris_type": 0,
        "meta_classification_type": "U",
        "meta_norad_cat_id": 66563,
        "meta_element_set_no": 999,
        "meta_rev_at_epoch": 608,
        "meta_bstar": -0.042464401,
        "meta_mean_motion_dot": -0.02068902,
        "meta_mean_motion_ddot": 0,
        "tle_line1": "1 66563U 25268G   25359.33334491 -.02068902  00000+0 -42464-1 0  9992",
        "tle_line2": "2 66563  43.0005  47.3149 0001181 270.8661 108.7942 15.48653018  6085"
      },
      "geometry": {
        "type": "Point",
        "coordinates": [
          138.93163107542784,
          42.88387219572448
        ]
      }
    },
    {
      "type": "Feature",
      "properties": {
        "norad_id": 66564,
        "name": "STARLINK-35358",
        "group": "last-30-days",
        "lat": 41.84426365030547,
        "lon": 150.26776274518326,
        "alt_km": 419.58429465117933,
        "timestamp": "2025-12-25T20:42:37.405588+00:00",
        "meta_object_name": "STARLINK-35358",
        "meta_object_id": "2025-268H",
        "meta_epoch": "2025-12-25T08:00:01.000224",
        "meta_mean_motion": 15.49496026,
        "meta_eccentricity": 0.00013516,
        "meta_inclination": 43,
        "meta_ra_of_asc_node": 47.298,
        "meta_arg_of_pericenter": 272.2687,
        "meta_mean_anomaly": 114.2277,
        "meta_ephemeris_type": 0,
        "meta_classification_type": "U",
        "meta_norad_cat_id": 66564,
        "meta_element_set_no": 999,
        "meta_rev_at_epoch": 618,
        "meta_bstar": -0.041379683,
        "meta_mean_motion_dot": -0.0207656,
        "meta_mean_motion_ddot": 0,
        "tle_line1": "1 66564U 25268H   25359.33334491 -.02076560  00000+0 -41380-1 0  9998",
        "tle_line2": "2 66564  43.0000  47.2980 0001351 272.2687 114.2277 15.49496026  6185"
      },
      "geometry": {
        "type": "Point",
        "coordinates": [
          150.26776274518326,
          41.84426365030547
        ]
      }
    },
    {
      "type": "Feature",
      "properties": {
        "norad_id": 66565,
        "name": "STARLINK-35893",
        "group": "last-30-days",
        "lat": 39.90537211619397,
        "lon": 160.3675845835275,
        "alt_km": 417.3552052270552,
        "timestamp": "2025-12-25T20:42:37.405598+00:00",
        "meta_object_name": "STARLINK-35893",
        "meta_object_id": "2025-268J",
        "meta_epoch": "2025-12-25T08:00:01.000224",
        "meta_mean_motion": 15.50332237,
        "meta_eccentricity": 0.00012627,
        "meta_inclination": 43.0004,
        "meta_ra_of_asc_node": 47.2824,
        "meta_arg_of_pericenter": 277.2123,
        "meta_mean_anomaly": 115.5595,
        "meta_ephemeris_type": 0,
        "meta_classification_type": "U",
        "meta_norad_cat_id": 66565,
        "meta_element_set_no": 999,
        "meta_rev_at_epoch": 608,
        "meta_bstar": -0.040107025,
        "meta_mean_motion_dot": -0.02074068,
        "meta_mean_motion_ddot": 0,
        "tle_line1": "1 66565U 25268J   25359.33334491 -.02074068  00000+0 -40107-1 0  9996",
        "tle_line2": "2 66565  43.0004  47.2824 0001262 277.2123 115.5595 15.50332237  6089"
      },
      "geometry": {
        "type": "Point",
        "coordinates": [
          160.3675845835275,
          39.90537211619397
        ]
      }
    },
    {
      "type": "Feature",
      "properties": {
        "norad_id": 66566,
        "name": "STARLINK-35871",
        "group": "last-30-days",
        "lat": 38.0909422289543,
        "lon": 166.91466972960467,
        "alt_km": 416.0550561891232,
        "timestamp": "2025-12-25T20:42:37.405609+00:00",
        "meta_object_name": "STARLINK-35871",
        "meta_object_id": "2025-268K",
        "meta_epoch": "2025-12-25T08:00:01.000224",
        "meta_mean_motion": 15.50857787,
        "meta_eccentricity": 0.00012701,
        "meta_inclination": 43.0003,
        "meta_ra_of_asc_node": 47.2717,
        "meta_arg_of_pericenter": 275.9515,
        "meta_mean_anomaly": 121.2132,
        "meta_ephemeris_type": 0,
        "meta_classification_type": "U",
        "meta_norad_cat_id": 66566,
        "meta_element_set_no": 999,
        "meta_rev_at_epoch": 608,
        "meta_bstar": -0.039233921,
        "meta_mean_motion_dot": -0.02068337,
        "meta_mean_motion_ddot": 0,
        "tle_line1": "1 66566U 25268K   25359.33334491 -.02068337  00000+0 -39234-1 0  9998",
        "tle_line2": "2 66566  43.0003  47.2717 0001270 275.9515 121.2132 15.50857787  6082"
      },
      "geometry": {
        "type": "Point",
        "coordinates": [
          166.91466972960467,
          38.0909422289543
        ]
      }
    },
    {
      "type": "Feature",
      "properties": {
        "norad_id": 66567,
        "name": "STARLINK-35825",
        "group": "last-30-days",
        "lat": 23.81795403170795,
        "lon": -164.1726288375007,
        "alt_km": 395.1175531417266,
        "timestamp": "2025-12-25T20:42:37.405619+00:00",
        "meta_object_name": "STARLINK-35825",
        "meta_object_id": "2025-268L",
        "meta_epoch": "2025-12-24T05:35:52.806912",
        "meta_mean_motion": 15.56426808,
        "meta_eccentricity": 0.00033868,
        "meta_inclination": 43.0005,
        "meta_ra_of_asc_node": 53.7242,
        "meta_arg_of_pericenter": 293.6521,
        "meta_mean_anomaly": 66.3986,
        "meta_ephemeris_type": 0,
        "meta_classification_type": "U",
        "meta_norad_cat_id": 66567,
        "meta_element_set_no": 999,
        "meta_rev_at_epoch": 641,
        "meta_bstar": 0.0017686293,
        "meta_mean_motion_dot": 0.00130148,
        "meta_mean_motion_ddot": 0,
        "tle_line1": "1 66567U 25268L   25358.23325008  .00130148  00000+0  17686-2 0  9995",
        "tle_line2": "2 66567  43.0005  53.7242 0003386 293.6521  66.3986 15.56426808  6419"
      },
      "geometry": {
        "type": "Point",
        "coordinates": [
          -164.1726288375007,
          23.81795403170795
        ]
      }
    }
  ]
}